     2.100          NAVIGATION                              RINEX VERSION / TYPE
fic2rin                                 09/12/2017 00:26:17 PGM / RUN BY / DATE
                                                            END OF HEADER
12 17  9 11 16  0  0.0  .373075716197D-03 -.125055521494D-11  .000000000000D+00
     .410000000000D+02 -.451250000000D+02  .409731352670D-08  .753668759089D+00
    -.259093940258D-05  .653658097144D-02  .491738319397D-05  .515372037888D+04
     .144000000000D+06 -.106170773506D-06 -.151845118102D+00  .670552253723D-07
     .988828720754D+00  .300062500000D+03  .914145968683D+00 -.817819779762D-08
    -.210008747707D-09  .100000000000D+01  .196600000000D+04  .000000000000D+00
     .240000000000D+01  .000000000000D+00 -.125728547573D-07  .410000000000D+02
     .136806000000D+06  .400000000000D+01
13 17  9 11 16  0  0.0 -.912123359740D-04 -.568434188608D-12  .000000000000D+00
     .650000000000D+02  .490625000000D+02  .402302471798D-08  .257770007043D+01
     .260770320892D-05  .350263563450D-02  .115800648928D-04  .515366140175D+04
     .144000000000D+06  .335276126862D-07 -.218945174583D+01  .521540641785D-07
     .969213287555D+00  .159843750000D+03  .175563596613D+01 -.769317759458D-08
    -.198936857947D-09  .100000000000D+01  .196600000000D+04  .000000000000D+00
     .240000000000D+01  .000000000000D+00 -.111758708954D-07  .650000000000D+02
     .136806000000D+06  .400000000000D+01
14 17  9 11 16  0  0.0 -.833920203149D-04 -.102318153949D-11  .000000000000D+00
     .450000000000D+02  .306875000000D+02  .417195949314D-08 -.240514226182D+01
     .168383121490D-05  .934741157107D-02  .116657465696D-04  .515369723892D+04
     .144000000000D+06  .279396772385D-07 -.222963240301D+01 -.132247805595D-06
     .961770465075D+00  .156093750000D+03 -.194953714973D+01 -.766924802639D-08
    -.198222542479D-09  .100000000000D+01  .196600000000D+04  .000000000000D+00
     .240000000000D+01  .000000000000D+00 -.977888703346D-08  .450000000000D+02
     .136806000000D+06  .400000000000D+01
15 17  9 11 16  0  0.0 -.355688389391D-03 -.341060513165D-12  .000000000000D+00
     .210000000000D+02  .263437500000D+02  .499235080859D-08 -.293656139468D+01
     .125728547573D-05  .955721258651D-02  .115279108286D-04  .515361625671D+04
     .144000000000D+06  .745058059692D-08 -.238156857606D+01 -.141561031342D-06
     .928980329588D+00  .139031250000D+03  .601395899833D+00 -.812533845296D-08
    -.301441127661D-09  .100000000000D+01  .196600000000D+04  .000000000000D+00
     .240000000000D+01  .000000000000D+00 -.107102096081D-07  .210000000000D+02
     .136806000000D+06  .400000000000D+01
16 17  9 11 16  0  0.0  .369921326637D-04  .000000000000D+00  .000000000000D+00
     .680000000000D+02 -.354375000000D+02  .399052336417D-08 -.120568058157D+01
    -.189989805222D-05  .928281329107D-02  .460259616375D-05  .515375853157D+04
     .144000000000D+06  .208616256714D-06 -.132980559791D+00 -.109896063805D-06
     .989297722050D+00  .298843750000D+03  .460666846680D+00 -.800390482333D-08
    -.575023952056D-10  .100000000000D+01  .196600000000D+04  .000000000000D+00
     .240000000000D+01  .000000000000D+00 -.107102096081D-07  .680000000000D+02
     .136806000000D+06  .400000000000D+01
17 17  9 11 16  0  0.0 -.157800968736D-03  .250111042988D-11  .000000000000D+00
     .170000000000D+02 -.362500000000D+02  .401909598291D-08 -.208999958021D+01
    -.185891985893D-05  .118194870884D-01  .101141631603D-04  .515368387794D+04
     .144000000000D+06  .173225998878D-06  .883292887414D+00  .447034835815D-07
     .980817433177D+00  .190437500000D+03 -.184450553305D+01 -.759817363729D-08
     .212151694112D-09  .100000000000D+01  .196600000000D+04  .000000000000D+00
     .240000000000D+01  .000000000000D+00 -.111758708954D-07  .170000000000D+02
     .136806000000D+06  .400000000000D+01
18 17  9 11 16  0  0.0  .629323534667D-03  .795807864051D-12  .000000000000D+00
     .940000000000D+02 -.264687500000D+02  .588274503994D-08 -.619385447341D+00
    -.130571424961D-05  .181370896753D-01  .665895640850D-05  .515362164116D+04
     .144000000000D+06 -.204890966415D-06  .288116096936D+01  .160187482834D-06
     .926272185880D+00  .235906250000D+03 -.178283109828D+01 -.907287792178D-08
    -.251796202608D-09  .100000000000D+01  .196600000000D+04  .000000000000D+00
     .240000000000D+01  .000000000000D+00 -.111758708954D-07  .940000000000D+02
     .136806000000D+06  .400000000000D+01
19 17  9 11 16  0  0.0 -.486723147333D-03  .181898940355D-11  .000000000000D+00
     .790000000000D+02 -.409062500000D+02  .412445751450D-08  .899633541919D+00
    -.209175050259D-05  .100690824911D-01  .106580555439D-04  .515368051720D+04
     .144000000000D+06 -.115483999252D-06  .930871587155D+00  .558793544769D-07
     .978120505662D+00  .186093750000D+03  .106545138120D+01 -.796926052312D-08
     .667884962947D-10  .100000000000D+01  .196600000000D+04  .000000000000D+00
     .240000000000D+01  .000000000000D+00 -.153668224812D-07  .790000000000D+02
     .136806000000D+06  .400000000000D+01
20 17  9 11 16  0  0.0  .486271921545D-03  .125055521494D-11  .000000000000D+00
     .320000000000D+02 -.327500000000D+02  .568773691707D-08 -.306502238171D+01
    -.166334211826D-05  .451426778454D-02  .619515776634D-05  .515372918701D+04
     .144000000000D+06  .106170773506D-06  .282998507841D+01  .577419996262D-07
     .927636750514D+00  .241406250000D+03  .166134316001D+01 -.860642992092D-08
    -.243224416988D-09  .100000000000D+01  .196600000000D+04  .000000000000D+00
     .240000000000D+01  .000000000000D+00 -.838190317154D-08  .320000000000D+02
     .136806000000D+06  .400000000000D+01
21 17  9 11 16  0  0.0 -.480148941278D-03  .306954461848D-11  .000000000000D+00
     .670000000000D+02  .459375000000D+01  .544951270836D-08  .278924902730D+00
     .387430191040D-06  .239596809261D-01  .817142426968D-05  .515360567474D+04
     .144000000000D+06 -.260770320892D-06  .184111193030D+01 -.260770320892D-07
     .940632520366D+00  .218500000000D+03 -.164208494654D+01 -.896430197059D-08
     .342157109360D-09  .100000000000D+01  .196600000000D+04  .000000000000D+00
     .240000000000D+01  .000000000000D+00 -.977888703346D-08  .670000000000D+02
     .136806000000D+06  .400000000000D+01
22 17  9 11 16  0  0.0 -.118456780910D-03 -.126192389871D-10  .000000000000D+00
     .900000000000D+01 -.311250000000D+02  .568880839028D-08 -.272917496639D+01
    -.162050127983D-05  .729217706248D-02  .617653131485D-05  .515372985458D+04
     .144000000000D+06  .160187482834D-06  .288082082920D+01  .912696123123D-07
     .924355571554D+00  .237312500000D+03 -.167931754584D+01 -.858321466820D-08
    -.196436753808D-09  .100000000000D+01  .196600000000D+04  .000000000000D+00
     .240000000000D+01  .000000000000D+00 -.176951289177D-07  .900000000000D+01
     .136806000000D+06  .400000000000D+01
23 17  9 11 16  0  0.0 -.217237044126D-03 -.341060513165D-12  .000000000000D+00
     .170000000000D+02  .224062500000D+02  .467376610969D-08  .281330189919D+01
     .972300767899D-06  .118813657900D-01  .108443200588D-04  .515369014740D+04
     .144000000000D+06 -.447034835815D-07 -.231648500966D+01 -.121071934700D-06
     .944192331092D+00  .159125000000D+03 -.242420375816D+01 -.792104422900D-08
    -.250010413937D-09  .100000000000D+01  .196600000000D+04  .000000000000D+00
     .240000000000D+01  .000000000000D+00 -.204890966415D-07  .170000000000D+02
     .136806000000D+06  .400000000000D+01
25 17  9 11 16  0  0.0 -.454452354461D-03 -.636646291241D-11  .000000000000D+00
     .970000000000D+02 -.372812500000D+02  .441089801732D-08  .322942524858D+00
    -.207684934139D-05  .655579345766D-02  .454671680927D-05  .515375612450D+04
     .144000000000D+06 -.577419996262D-07 -.208406882400D+00  .150874257088D-06
     .976642538545D+00  .304406250000D+03  .826686499725D+00 -.834927635230D-08
    -.140005831805D-09  .100000000000D+01  .196600000000D+04  .000000000000D+00
     .340000000000D+01  .000000000000D+00  .558793544769D-08  .970000000000D+02
     .136806000000D+06  .400000000000D+01
27 17  9 11 16  0  0.0  .323510728776D-03  .511590769747D-11  .000000000000D+00
     .900000000000D+02 -.546875000000D+02  .413231498465D-08 -.207413776805D+01
    -.303238630295D-05  .492600409780D-02  .954978168011D-05  .515367268372D+04
     .144000000000D+06  .167638063431D-07  .830708471142D+00 -.931322574615D-07
     .975701352643D+00  .204250000000D+03  .396233253323D+00 -.783318342639D-08
     .180721813503D-09  .100000000000D+01  .196600000000D+04  .000000000000D+00
     .240000000000D+01  .000000000000D+00  .139698386192D-08  .900000000000D+02
     .136806000000D+06  .400000000000D+01
28 17  9 11 16  0  0.0  .644938088953D-03  .318323145621D-11  .000000000000D+00
     .870000000000D+02 -.450312500000D+02  .412981488051D-08 -.118697860613D+01
    -.191479921341D-05  .198128664633D-01  .559166073799D-05  .515365464973D+04
     .144000000000D+06 -.281259417534D-06 -.128510089875D+00  .333413481712D-06
     .988113301148D+00  .289750000000D+03 -.156508185279D+01 -.822498546080D-08
    -.101432796512D-09  .100000000000D+01  .196600000000D+04  .000000000000D+00
     .340000000000D+01  .000000000000D+00 -.111758708954D-07  .870000000000D+02
     .136806000000D+06  .400000000000D+01
29 17  9 11 16  0  0.0  .564238522202D-03 -.443378667114D-11  .000000000000D+00
     .190000000000D+02 -.580625000000D+02  .401338145916D-08 -.807366962189D+00
    -.282935798168D-05  .528080970980D-03  .108983367682D-04  .515357558060D+04
     .144000000000D+06  .223517417908D-07  .893551205457D+00 -.931322574615D-08
     .981973046296D+00  .183312500000D+03  .886186293605D+00 -.780211070351D-08
     .172864343351D-09  .100000000000D+01  .196600000000D+04  .000000000000D+00
     .240000000000D+01  .000000000000D+00 -.102445483208D-07  .190000000000D+02
     .136806000000D+06  .400000000000D+01
